[{"OBJECT_NAME":"SHIYAN-6 01 (SY-6 01)","OBJECT_ID":"2018-094B","EPOCH":"2026-03-09T23:04:36.967872","MEAN_MOTION":15.28649156,"ECCENTRICITY":0.00144834,"INCLINATION":97.3669,"RA_OF_ASC_NODE":84.0964,"ARG_OF_PERICENTER":135.6758,"MEAN_ANOMALY":224.5644,"EPHEMERIS_TYPE":0,"CLASSIFICATION_TYPE":"U","NORAD_CAT_ID":43711,"ELEMENT_SET_NO":999,"REV_AT_EPOCH":40632,"BSTAR":0.00024768444,"MEAN_MOTION_DOT":6.847e-5,"MEAN_MOTION_DDOT":0},{"OBJECT_NAME":"STARLINK-2471","OBJECT_ID":"2021-027AP","EPOCH":"2026-03-09T12:30:01.827072","MEAN_MOTION":15.30176239,"ECCENTRICITY":0.00012982,"INCLINATION":53.1624,"RA_OF_ASC_NODE":166.3555,"ARG_OF_PERICENTER":99.7429,"MEAN_ANOMALY":260.3719,"EPHEMERIS_TYPE":0,"CLASSIFICATION_TYPE":"U","NORAD_CAT_ID":48129,"ELEMENT_SET_NO":999,"REV_AT_EPOCH":27248,"BSTAR":0.00018751226,"MEAN_MOTION_DOT":5.194e-5,"MEAN_MOTION_DDOT":0}]
